#cP2023  5 14  0  0  0.00000000      96 ORBIT IGS20 HLM  IGS
## 2262      0.00000000   900.00000000 60078 0.0000000000000
+   32   G01G02G03G04G05G06G07G08G09G10G11G12G13G14G15G16G17
+        G18G19G20G21G22G23G24G25G26G27G28G29G30G31G32  0  0
+          0  0  0  0  0  0  0  0  0  0  0  0  0  0  0  0  0
+          0  0  0  0  0  0  0  0  0  0  0  0  0  0  0  0  0
+          0  0  0  0  0  0  0  0  0  0  0  0  0  0  0  0  0
++         2  2  2  2  2  2  2  2  2  2  2  2  2  2  1  2  2
++         2  2  2  2  2  2  2  2  2  2  2  2  2  2  2  0  0
++         0  0  0  0  0  0  0  0  0  0  0  0  0  0  0  0  0
++         0  0  0  0  0  0  0  0  0  0  0  0  0  0  0  0  0
++         0  0  0  0  0  0  0  0  0  0  0  0  0  0  0  0  0
%c G  cc GPS ccc cccc cccc cccc cccc ccccc ccccc ccccc ccccc
%c cc cc ccc ccc cccc cccc cccc cccc ccccc ccccc ccccc ccccc
%f  1.2500000  1.025000000  0.00000000000  0.000000000000000
%f  0.0000000  0.000000000  0.00000000000  0.000000000000000
%i    0    0    0    0      0      0      0      0         0
%i    0    0    0    0      0      0      0      0         0
/* RAPID ORBIT COMBINATION FROM WEIGHTED AVERAGE OF:        
/* cod emr esa gfz grg jpl ngs sio usn whu                  
/* REFERENCED TO IGS TIME (IGST) AND TO WEIGHTED MEAN POLE: 
/* PCV:IGS20_2233 OL/AL:FES2014b NONE     Y  ORB:CMB CLK:CMB
*  2023  5 14 11 15  0.00000000
PG01   4484.262731 -16762.388819 -20332.313980    185.438096  6  4  4  83       
PG02  24190.470134  -9063.896284   6423.533084   -596.335812  7  3  3  79       
PG03  -6541.291175 -18860.621007 -17710.772506   -303.626510  4  3  4  88       
PG04   -176.730270 -26148.886534   4304.841469     41.163524  5  6  5  82       
PG05 -10126.622203  11318.585720  21623.545802   -127.150451  3  3  5  99       
PG06 -24152.838134   3801.640427 -10437.330809    588.054872  7  1  5 100       
PG07 -11734.872540 -11376.984885  21465.201214    178.521644  5  5  5 102       
PG08   6727.397604 -24188.180802   7958.193386   -122.365328  5  3  6  95       
PG09  -8251.551183 -21437.215793  13225.605093   -159.115847  5  5     90       
PG10  23584.775456  10446.317086  -6802.364950    -36.873977  5  6  2  74       
PG11 -23020.176452  12625.972726   3890.699395   -196.457465  8  4  4  92       
PG12   2393.028754  18660.897717 -19060.700103   -375.882376  5  6  5  96       
PG13 -13081.954111  18985.965356  12824.912618    519.769605  7  6  5  89       
PG14 -22931.669992 -12854.135177  -4308.662814     56.489209  9  5  5 102       
PG15  -3464.905481  25140.709902   6904.813781     39.428834  6  4  2  80       
PG16  14228.955245  -7156.175096  21021.396446   -501.112582  8  3  5  94       
PG17 -13419.917668  -7765.833372 -21123.537731    714.739029  8  3  4  87       
PG18  14404.885820   8754.837877  20562.439171   -265.770838  8  5  6 104       
PG19 -15365.278054   1560.250626 -21799.590546    316.730625  9  7  5  86       
PG20 -17931.754156   6372.913860  18485.161845    433.646833  6  3  5  94       
PG21  12374.779231 -18307.143889 -13521.965673    153.825699  6  5  4  83       
PG22  15321.453783  -5808.042166 -20418.505262    481.104477  8  6  6 120       
PG23  20138.766497  16758.478312   4839.542827     24.112693 10  3  5  84       
PG24  -7503.969602  19101.520465 -16988.594083   -188.261710  3  3  4  79       
PG25  14077.912531  19471.644243 -11922.253304    442.727054  7  8  6  72       
PG26  22531.188093   1051.254809  14169.906566    240.805867  7  6  6  96       
PG27  12584.021582 -15987.732954  16595.033373     37.761014  6  5  4 106       
PG28  23489.659381  -2841.506779 -12085.340838     77.412550  8  4  5  93       
PG29   4030.729740  23705.790139  11129.352350   -599.367752  5  5  3  74       
PG30 -20936.856825  -3372.037286  16261.407653   -517.255210  6  6  4  92       
PG31  24971.998921  -9484.831512  -2424.778996   -216.085215  7  5  4  89       
PG32  14771.025136   4540.841055 -21439.985816   -476.198106  8  3  3  99       
*  2023  5 14 11 30  0.00000000
PG01   6478.714128 -17661.835067 -18932.598758    185.435504  6  5  3  90       
PG02  23612.194875  -8434.334610   9117.258470   -596.332406  8  2  1  87       
PG03  -4726.353313 -17830.419671 -19285.770039   -303.616578  4  3  4  95       
PG04    104.949909 -26458.285261   1464.559912     41.172268  5  7  5  76       
PG05 -12263.445397  10056.220569  21150.163909   -127.151461  4  4  5 103       
PG06 -23027.819531   3065.283758 -12906.370314    588.054578  7  2  5 101       
PG07  -9631.272806 -12491.983682  21853.797670    178.513259  4  5  6 102       
PG08   6978.137219 -23104.641420  10555.364669   -122.367656  5  4  5  91       
PG09  -7996.479511 -22823.274617  10860.857522   -159.108385  6  4     92       
PG10  24025.769962  10934.063595  -4017.776935    -36.875131  5  6  2  73       
PG11 -23377.798458  12522.695003   1041.788034   -196.469911  8  5  4  90       
PG12    566.687383  17438.097316 -20329.290726   -375.886577  5  6  4 103       
PG13 -12983.993646  17350.183823  15039.866952    519.774593  7  6  5  87       
PG14 -23053.436838 -13268.433373  -1510.757154     56.500683  9  6  6 107       
PG15  -3901.672182  24174.034009   9496.403755     39.431869  6  4  1  79       
PG16  16106.850231  -5645.950244  20160.616681   -501.109662  8  3  5  98       
PG17 -13094.069925 -10202.088451 -20282.861728    714.740211  7  2  3  89       
PG18  12289.075289   9877.136533  21396.622151   -265.785054  7  5  7 103       
PG19 -15035.614739   -879.294394 -22094.859533    316.735002  9  7  5  89       
PG20 -19732.848992   5428.897194  16860.619716    433.645557  6  3  5 101       
PG21  13805.478043 -18892.882069 -11145.784687    153.825565  6  4  3  92       
PG22  15089.755210  -3343.338021 -21130.142125    481.110625  8  6  6 119       
PG23  19429.711152  16568.281124   7594.487479     24.115476  9  3  5  82       
PG24  -9146.306530  19877.149367 -15116.385181   -188.274163  4  2  3  91       
PG25  12748.607082  18883.261979 -14184.270270    442.729440  6  7  6  89       
PG26  23740.568070   1982.303219  11971.914261    240.805499  7  6  6 102       
PG27  12675.122039 -13928.219993  18306.826548     37.753833  6  5  3 108       
PG28  22277.226438  -1920.267291 -14354.365071     77.415701  7  4  5 100       
PG29   3704.272328  24808.700523   8544.989022   -599.369280  6  5  4  93       
PG30 -19296.347761  -4415.070850  17940.871662   -517.253285  6  6  4  97       
PG31  24706.617167  -9093.054182  -5198.610497   -216.085974  7  5  3  83       
PG32  14647.257169   6995.218018 -20879.383623   -476.206467  8  4  3  96       
*  2023  5 14 11 45  0.00000000
PG01   8271.125025 -18586.260427 -17211.832246    185.432915  6  5  3  94       
PG02  22829.717752  -7608.181799  11656.208046   -596.328926  8  2     86       
PG03  -2717.710337 -16825.384504 -20533.604413   -303.606704  4  3  3 101       
PG04    364.945246 -26457.999886  -1401.103469     41.181070  5  7  5  76       
PG05 -14394.978914   8941.944456  20307.705429   -127.152650  5  4  6 102       
PG06 -21715.677219   2129.216778 -15153.663554    588.054310  7  3  5 100       
PG07  -7564.891897 -13728.788736  21882.469620    178.505151  4  5  6 100       
PG08   7295.922087 -21749.808450  12966.351211   -122.368351  5  4  5  91       
PG09  -7801.834275 -23941.586746   8308.132293   -159.100873  6  4     81       
PG10  24214.881602  11241.980578  -1165.098895    -36.876419  5  6  2  83       
PG11 -23454.628525  12285.577527  -1825.092179   -196.482412  9  5  5  92       
PG12  -1425.291542  16248.478400 -21256.959318   -375.890640  5  6  4  97       
PG13 -12944.285822  15474.836663  16990.615669    519.779340  7  6  5 103       
PG14 -22924.095384 -13513.751881   1312.914396     56.512169  8  6  7  81       
PG15  -4430.046661  22944.012905  11918.944454     39.435132  6  5     86       
PG16  17959.295593  -4306.273440  18947.180217   -501.106847  9  3  6  92       
PG17 -12903.141735 -12533.309796 -19079.013360    714.741269  7  2  3  77       
PG18  10172.293586  11150.283223  21863.379049   -265.799283  6  5  7 100       
PG19 -14839.005773  -3342.389076 -22017.549700    316.739819  9  7  4  98       
PG20 -21390.956873   4641.601592  14944.512984    433.643475  6  3  5 109       
PG21  14969.109133 -19380.125303  -8563.201884    153.825329  7  4  3  88       
PG22  14979.991834   -810.432377 -21462.151145    481.116187  8  6  6 123       
PG23  18440.849985  16278.002302  10219.890239     24.118269  9  2  5  84       
PG24 -10572.554952  20598.793473 -12985.061852   -188.286632  4  2  3  92       
PG25  11180.997041  18251.133367 -16209.680262    442.731781  6  7  6  97       
PG26  24758.777700   2741.722973   9570.212239    240.804953  8  7  5 113       
PG27  12876.747131 -11699.692777  19692.850722     37.746609  5  5  2 107       
PG28  20911.104097   -804.770986 -16376.653936     77.418893  7  4  5 108       
PG29   3455.655542  25625.683036   5812.541772   -599.370314  6  6  4  73       
PG30 -17560.172345  -5624.263413  19316.935793   -517.251372  5  5  5  91       
PG31  24196.957597  -8537.515328  -7885.690002   -216.086666  7  6  2  91       
PG32  14648.008509   9365.724374 -19954.871315   -476.214817  8  5  3  97       
EOF
